NORAD_CAT_ID,OBJECT_NAME,OBJECT_TYPE,EPOCH,MEAN_MOTION,ECCENTRICITY,INCLINATION,RA_OF_ASC_NODE,ARG_OF_PERICENTER,MEAN_ANOMALY,BSTAR,MEAN_MOTION_DOT,MEAN_MOTION_DDOT,TLE_LINE0,TLE_LINE1,TLE_LINE2,SEMIMAJOR_AXIS,PERIOD,APOGEE,PERIGEE,DECAYED
53604.0,STARLINK-4690,PAYLOAD,2022-09-22 22:00:00,15.73152402,0.0001452,53.2175,160.371,132.3443,298.2903,-0.0073833,-0.00927097,0.0,0 STARLINK-4690,1 53604U 22104S   22265.91667824 -.00927097  00000-0 -73833-2 0  9999,2 53604  53.2175 160.3710 0001452 132.3443 298.2903 15.73152402  1300,6728.031,91.536,350.87300000000016,348.9190000000001,0.0
53604.0,STARLINK-4690,PAYLOAD,2022-09-23 06:00:00,15.72478666,0.0001422,53.2172,158.722,132.0008,27.0988,-0.0086262,-0.0105601,0.0,0 STARLINK-4690,1 53604U 22104S   22266.25001157 -.01056010  00000-0 -86262-2 0  9997,2 53604  53.2172 158.7220 0001422 132.0008  27.0988 15.72478666  4143,6729.953,91.575,352.775,350.861,0.0
53604.0,STARLINK-4690,PAYLOAD,2022-09-23 14:00:01,15.7171726,0.0001619,53.2172,157.0732,140.3091,106.3869,-0.0088811,-0.01052802,0.0,0 STARLINK-4690,1 53604U 22104S   22266.58334491 -.01052802  00000-0 -88811-2 0  9990,2 53604  53.2172 157.0732 0001619 140.3091 106.3869 15.71717260  1304,6732.126,91.62,355.081,352.901,0.0
53604.0,STARLINK-4690,PAYLOAD,2022-09-23 22:00:00,15.70941819,0.00015,53.2172,155.4306,139.224,194.1603,-0.0089716,-0.01031337,0.0,0 STARLINK-4690,1 53604U 22104S   22266.91667824 -.01031337  00000-0 -89716-2 0  9991,2 53604  53.2172 155.4306 0001500 139.2240 194.1603 15.70941819  4240,6734.340999999999,91.665,357.216,355.196,0.0
53604.0,STARLINK-4690,PAYLOAD,2022-09-24 14:00:01,15.69428687,0.0001225,53.2171,152.1449,115.0392,29.0343,-0.0096421,-0.01039121,0.0,0 STARLINK-4690,1 53604U 22104S   22267.58335648 -.01039121  00000-0 -96421-2 0  9991,2 53604  53.2171 152.1449 0001225 115.0392  29.0343 15.69428687  1307,6738.669,91.753,361.359,359.708,0.0
53604.0,STARLINK-4690,PAYLOAD,2022-09-24 22:00:00,15.68677634,0.0001278,53.2176,150.5061,110.8367,117.1105,-0.010052,-0.0104888,0.0,0 STARLINK-4690,1 53604U 22104S   22267.91667824 -.01048880  00000-0 -10052-1 0  9999,2 53604  53.2176 150.5061 0001278 110.8367 117.1105 15.68677634  1309,6740.82,91.797,363.546,361.823,0.0
53604.0,STARLINK-4690,PAYLOAD,2022-09-25 06:00:00,15.67921715,0.0001631,53.2173,148.8684,146.267,164.7101,-0.010425,-0.01053898,0.0,0 STARLINK-4690,1 53604U 22104S   22268.25001157 -.01053898  00000-0 -10425-1 0  9997,2 53604  53.2173 148.8684 0001631 146.2670 164.7101 15.67921715  4454,6742.986,91.841,365.951,363.751,0.0
53604.0,STARLINK-4690,PAYLOAD,2022-09-25 14:00:01,15.67158452,0.000161,53.2174,147.2309,147.4571,245.6412,-0.010701,-0.01048947,0.0,0 STARLINK-4690,1 53604U 22104S   22268.58334491 -.01048947  00000-0 -10701-1 0  9999,2 53604  53.2174 147.2309 0001610 147.4571 245.6412 15.67158452  1307,6745.175,91.886,368.126,365.954,0.0
53604.0,STARLINK-4690,PAYLOAD,2022-09-25 22:00:01,15.66400864,0.0001226,53.2174,145.599,114.4101,359.9572,-0.011059,-0.01050683,0.0,0 STARLINK-4690,1 53604U 22104S   22268.91668981 -.01050683  00000-0 -11059-1 0  9997,2 53604  53.2174 145.5990 0001226 114.4101 359.9572 15.66400864  1302,6747.35,91.93,370.042,368.388,0.0
53604.0,STARLINK-4690,PAYLOAD,2022-09-26 14:00:01,15.64891355,0.0001361999999999,53.2169,142.336,123.2421,150.72899999999996,-0.0118959999999999,-0.01062054,0.0,0 STARLINK-4690,1 53604U 22104S   22269.58334491 -.01062054  00000-0 -11896-1 0  9991,2 53604  53.2169 142.3360 0001362 123.2421 150.7290 15.64891355  1307,6751.688,92.019,374.473,372.634,0.0
53604.0,STARLINK-4690,PAYLOAD,2022-09-26 22:00:00,15.64122648,0.0001422,53.2174,140.7084,137.2118,215.2318,-0.012116,-0.01050276,0.0,0 STARLINK-4690,1 53604U 22104S   22269.91667824 -.01050276  00000-0 -12116-1 0  9996,2 53604  53.2174 140.7084 0001422 137.2118 215.2318 15.64122648  1303,6753.9,92.064,376.726,374.805,0.0
53604.0,STARLINK-4690,PAYLOAD,2022-09-27 14:00:01,15.62598205,0.0001215,53.217,137.4563,110.2139,36.4302,-0.012759,-0.01058116,0.0,0 STARLINK-4690,1 53604U 22104S   22270.58334491 -.01058116  00000-0 -12759-1 0  9996,2 53604  53.2170 137.4563 0001215 110.2139  36.4302 15.62598205  1308,6758.292,92.154,380.978,379.336,0.0
53604.0,STARLINK-4690,PAYLOAD,2022-09-27 22:00:01,15.618556,0.0001565999999999,53.2173,135.8354,132.5355,89.8938,-0.013432,-0.01079932,0.0,0 STARLINK-4690,1 53604U 22104S   22270.91668981 -.01079932  00000-0 -13432-1 0  9995,2 53604  53.2173 135.8354 0001566 132.5355  89.8938 15.61855600  1308,6760.434,92.198,383.358,381.24,0.0
53604.0,STARLINK-4690,PAYLOAD,2022-09-28 06:00:00,15.6108546,0.0001612,53.2172,134.2129,141.6639,155.525,-0.0136639999999999,-0.01067331,0.0,0 STARLINK-4690,1 53604U 22104S   22271.25001157 -.01067331  00000-0 -13664-1 0  9996,2 53604  53.2172 134.2129 0001612 141.6639 155.5250 15.61085460  4926,6762.656999999997,92.244,385.61300000000006,383.432,0.0
53604.0,STARLINK-4690,PAYLOAD,2022-09-28 14:00:01,15.60322173,0.0001583,53.2174,132.5924,143.9542,227.1413,-0.013978,-0.0106068,0.0,0 STARLINK-4690,1 53604U 22104S   22271.58334491 -.01060680  00000-0 -13978-1 0  9990,2 53604  53.2174 132.5924 0001583 143.9542 227.1413 15.60322173  1307,6764.863,92.289,387.799,385.657,0.0
53604.0,STARLINK-4690,PAYLOAD,2022-09-28 22:00:00,15.59565926,0.0001187,53.2173,130.9772,111.4503,332.6345,-0.014462,-0.01065334,0.0,0 STARLINK-4690,1 53604U 22104S   22271.91667824 -.01065334  00000-0 -14462-1 0  9996,2 53604  53.2173 130.9772 0001187 111.4503 332.6345 15.59565926  1305,6767.049,92.333,389.718,388.111,0.0
53604.0,STARLINK-4690,PAYLOAD,2022-09-29 06:00:00,15.58805723,0.0001273,53.2173,129.3609,112.5369,43.6283,-0.0148729999999999,-0.01064325,0.0,0 STARLINK-4690,1 53604U 22104S   22272.25001157 -.01064325  00000-0 -14873-1 0  9990,2 53604  53.2173 129.3609 0001273 112.5369  43.6283 15.58805723  5084,6769.249,92.378,391.976,390.253,0.0
53604.0,STARLINK-4690,PAYLOAD,2022-09-29 14:00:01,15.58052863,0.0001426,53.2168,127.7471,121.7301,105.5975,-0.015418,-0.01071522,0.0,0 STARLINK-4690,1 53604U 22104S   22272.58334491 -.01071522  00000-0 -15418-1 0  9999,2 53604  53.2168 127.7471 0001426 121.7301 105.5975 15.58052863  1301,6771.43,92.423,394.26,392.329,0.0
53604.0,STARLINK-4690,PAYLOAD,2022-09-29 22:00:00,15.57295522,0.0001551999999999,53.2172,126.1373,135.055,162.525,-0.015933,-0.01075684,0.0,0 STARLINK-4690,1 53604U 22104S   22272.91667824 -.01075684  00000-0 -15933-1 0  9990,2 53604  53.2172 126.1373 0001552 135.0550 162.5250 15.57295522  1303,6773.625,92.468,396.541,394.439,0.0
53604.0,STARLINK-4690,PAYLOAD,2022-09-30 06:00:02,15.56534952,0.0001112,53.2169,124.526,116.1649,250.8228,-0.016374,-0.01074299,0.0,0 STARLINK-4690,1 53604U 22104S   22273.25002315 -.01074299  00000-0 -16374-1 0  9997,2 53604  53.2169 124.5260 0001112 116.1649 250.8228 15.56534952  5231,6775.831,92.513,398.45,396.943,0.0
53604.0,STARLINK-4690,PAYLOAD,2022-09-30 14:00:01,15.5576535,0.0001185,53.2176,122.9161,112.2477,323.1091,-0.016586,-0.01058897,0.0,0 STARLINK-4690,1 53604U 22104S   22273.58334491 -.01058897  00000-0 -16586-1 0  9997,2 53604  53.2176 122.9161 0001185 112.2477 323.1091 15.55765350  1300,6778.066,92.559,400.734,399.128,0.0
53604.0,STARLINK-4690,PAYLOAD,2022-09-30 22:00:00,15.55010676,0.0001431999999999,53.2172,121.313,122.7943,20.0741,-0.0171699999999999,-0.01065327,0.0,0 STARLINK-4690,1 53604U 22104S   22273.91667824 -.01065327  00000-0 -17170-1 0  9999,2 53604  53.2172 121.3130 0001432 122.7943  20.0741 15.55010676  1303,6780.259,92.604,403.095,401.153,0.0
53604.0,STARLINK-4690,PAYLOAD,2022-10-01 06:00:00,15.54249574,0.0001551999999999,53.2173,119.7063,129.7591,79.7156,-0.017646,-0.01064628,0.0,0 STARLINK-4690,1 53604U 22104S   22274.25001157 -.01064628  00000-0 -17646-1 0  9999,2 53604  53.2173 119.7063 0001552 129.7591  79.7156 15.54249574  5393,6782.472,92.649,405.39,403.284,0.0
53604.0,STARLINK-4690,PAYLOAD,2022-10-01 14:00:01,15.53488455,0.0001281999999999,53.217,118.1036,114.6253,160.5397,-0.018059,-0.01059908,0.0,0 STARLINK-4690,1 53604U 22104S   22274.58334491 -.01059908  00000-0 -18059-1 0  9999,2 53604  53.2170 118.1036 0001282 114.6253 160.5397 15.53488455  1306,6784.687,92.695,407.422,405.682,0.0
53604.0,STARLINK-4690,PAYLOAD,2022-10-01 22:00:00,15.52736784,0.0001434,53.217,116.5051,133.6765,206.2619,-0.0187939999999999,-0.01072029,0.0,0 STARLINK-4690,1 53604U 22104S   22274.91667824 -.01072029  00000-0 -18794-1 0  9990,2 53604  53.2170 116.5051 0001434 133.6765 206.2619 15.52736784  1308,6786.877,92.739,409.715,407.768,0.0
53604.0,STARLINK-4690,PAYLOAD,2022-10-02 06:00:00,15.51968202,0.0001155,53.2172,114.9042,119.2396,284.5697,-0.019075,-0.01059305,0.0,0 STARLINK-4690,1 53604U 22104S   22275.25001157 -.01059305  00000-0 -19075-1 0  9994,2 53604  53.2172 114.9042 0001155 119.2396 284.5697 15.51968202  5559,6789.1169999999975,92.785,411.766,410.198,0.0
53604.0,STARLINK-4690,PAYLOAD,2022-10-02 14:00:01,15.51230386,0.0001334,53.2168,113.3068,111.9434,354.8075,-0.020194,-0.01088996,0.0,0 STARLINK-4690,1 53604U 22104S   22275.58334491 -.01088996  00000-0 -20194-1 0  9992,2 53604  53.2168 113.3068 0001334 111.9434 354.8075 15.51230386  1301,6791.27,92.83,414.041,412.229,0.0
53604.0,STARLINK-4690,PAYLOAD,2022-10-02 22:00:00,15.50332504,0.0001541,53.2173,111.7136,115.4505,53.3627,-0.0098643,-0.00532275,0.0,0 STARLINK-4690,1 53604U 22104S   22275.91667824 -.00532275  00000-0 -98643-2 0  9996,2 53604  53.2173 111.7136 0001541 115.4505  53.3627 15.50332504  5653,6793.891,92.883,416.80300000000005,414.71,0.0
53604.0,STARLINK-4690,PAYLOAD,2022-10-03 06:00:00,15.49985884,0.0001496,53.217,110.1202,114.8884,114.9857,0.00034477,0.00019234,0.0,0 STARLINK-4690,1 53604U 22104S   22276.25001157  .00019234  00000-0  34477-3 0  9994,2 53604  53.2170 110.1202 0001496 114.8884 114.9857 15.49985884  5707,6794.904,92.904,417.786,415.753,0.0
